[{"OBJECT_NAME":"STARLINK-34109","OBJECT_ID":"2025-092D","EPOCH":"2026-03-09T14:25:15.233664","MEAN_MOTION":15.27606412,"ECCENTRICITY":0.0001529,"INCLINATION":43.0043,"RA_OF_ASC_NODE":172.8325,"ARG_OF_PERICENTER":300.8176,"MEAN_ANOMALY":59.2525,"EPHEMERIS_TYPE":0,"CLASSIFICATION_TYPE":"U","NORAD_CAT_ID":63807,"ELEMENT_SET_NO":999,"REV_AT_EPOCH":4860,"BSTAR":0.00085823,"MEAN_MOTION_DOT":0.00023449,"MEAN_MOTION_DDOT":0},{"OBJECT_NAME":"KUIPER-00180","OBJECT_ID":"2026-030E","EPOCH":"2026-03-09T22:29:40.634304","MEAN_MOTION":15.31865817,"ECCENTRICITY":0.00157227,"INCLINATION":51.8823,"RA_OF_ASC_NODE":218.464,"ARG_OF_PERICENTER":75.5448,"MEAN_ANOMALY":284.728,"EPHEMERIS_TYPE":0,"CLASSIFICATION_TYPE":"U","NORAD_CAT_ID":67768,"ELEMENT_SET_NO":999,"REV_AT_EPOCH":512,"BSTAR":0.011360708,"MEAN_MOTION_DOT":0.00373574,"MEAN_MOTION_DDOT":0}]
